[{"OBJECT_NAME":"FLOCK 4G-30","OBJECT_ID":"2025-009BY","EPOCH":"2026-03-09T17:00:32.842080","MEAN_MOTION":15.27244548,"ECCENTRICITY":0.00037948,"INCLINATION":97.3969,"RA_OF_ASC_NODE":150.6012,"ARG_OF_PERICENTER":342.4152,"MEAN_ANOMALY":17.6955,"EPHEMERIS_TYPE":0,"CLASSIFICATION_TYPE":"U","NORAD_CAT_ID":62679,"ELEMENT_SET_NO":999,"REV_AT_EPOCH":12134,"BSTAR":0.00049474629,"MEAN_MOTION_DOT":0.00013147,"MEAN_MOTION_DDOT":0},{"OBJECT_NAME":"STARLINK-32915","OBJECT_ID":"2025-043W","EPOCH":"2026-03-08T21:49:09.885216","MEAN_MOTION":15.27588605,"ECCENTRICITY":0.0001231,"INCLINATION":42.9991,"RA_OF_ASC_NODE":27.4604,"ARG_OF_PERICENTER":246.1784,"MEAN_ANOMALY":113.8939,"EPHEMERIS_TYPE":0,"CLASSIFICATION_TYPE":"U","NORAD_CAT_ID":63152,"ELEMENT_SET_NO":999,"REV_AT_EPOCH":5716,"BSTAR":0.0013152863,"MEAN_MOTION_DOT":0.00036119,"MEAN_MOTION_DDOT":0}]
